[
    {
        "Altitude(m)": 717571.7057444635,
        "Argument of Periapsis(deg)": 0.0011390121186627068,
        "Eccentricity": 0.0,
        "Inclination(deg)": 45.0,
        "Latitude(deg)": -44.402967495366475,
        "Longitude(deg)": -66.98548090542737,
        "Mean Anomaly(deg)": -80.6648783352519,
        "RAAN(deg)": 109.99892480585419,
        "Satellite Name": "Constellation 1 501",
        "Satellite Number": 501,
        "Semi-Major Axis(m)": 7083131.272910544,
        "Time(s)": 19
    },
    {
        "Altitude(m)": 717567.6868771368,
        "Argument of Periapsis(deg)": 0.0011989601249081123,
        "Eccentricity": 0.0,
        "Inclination(deg)": 45.0,
        "Latitude(deg)": -44.3932423191225,
        "Longitude(deg)": -66.90615334595972,
        "Mean Anomaly(deg)": -80.60417719500204,
        "RAAN(deg)": 109.99886821668862,
        "Satellite Name": "Constellation 1 501",
        "Satellite Number": 501,
        "Semi-Major Axis(m)": 7083131.272910544,
        "Time(s)": 20
    },
    {
        "Altitude(m)": 717563.642761182,
        "Argument of Periapsis(deg)": 0.001258908131153518,
        "Eccentricity": 0.0,
        "Inclination(deg)": 45.0,
        "Latitude(deg)": -44.38345621889568,
        "Longitude(deg)": -66.82685344197245,
        "Mean Anomaly(deg)": -80.54347605475216,
        "RAAN(deg)": 109.99881162752304,
        "Satellite Name": "Constellation 1 501",
        "Satellite Number": 501,
        "Semi-Major Axis(m)": 7083131.272910544,
        "Time(s)": 21
    },
    {
        "Altitude(m)": 717559.5734115014,
        "Argument of Periapsis(deg)": 0.0013188561373989236,
        "Eccentricity": 0.0,
        "Inclination(deg)": 45.0,
        "Latitude(deg)": -44.37360923526097,
        "Longitude(deg)": -66.74758151540395,
        "Mean Anomaly(deg)": -80.48277491450226,
        "RAAN(deg)": 109.99875503835747,
        "Satellite Name": "Constellation 1 501",
        "Satellite Number": 501,
        "Semi-Major Axis(m)": 7083131.272910544,
        "Time(s)": 22
    },
    {
        "Altitude(m)": 717555.4788430802,
        "Argument of Periapsis(deg)": 0.0013788041436443293,
        "Eccentricity": 0.0,
        "Inclination(deg)": 45.0,
        "Latitude(deg)": -44.36370140901122,
        "Longitude(deg)": -66.66833738345038,
        "Mean Anomaly(deg)": -80.42207377425231,
        "RAAN(deg)": 109.99869844919189,
        "Satellite Name": "Constellation 1 501",
        "Satellite Number": 501,
        "Semi-Major Axis(m)": 7083131.272910544,
        "Time(s)": 23
    },
    {
        "Altitude(m)": 717551.3590710018,
        "Argument of Periapsis(deg)": 0.001438752149889735,
        "Eccentricity": 0.0,
        "Inclination(deg)": 45.0,
        "Latitude(deg)": -44.353732781156786,
        "Longitude(deg)": -66.58912136714785,
        "Mean Anomaly(deg)": -80.36137263400245,
        "RAAN(deg)": 109.99864186002634,
        "Satellite Name": "Constellation 1 501",
        "Satellite Number": 501,
        "Semi-Major Axis(m)": 7083131.272910544,
        "Time(s)": 24
    },
    {
        "Altitude(m)": 717547.214110434,
        "Argument of Periapsis(deg)": 0.0014987001561351404,
        "Eccentricity": 0.0,
        "Inclination(deg)": 45.0,
        "Latitude(deg)": -44.34370339291482,
        "Longitude(deg)": -66.50993361890073,
        "Mean Anomaly(deg)": -80.30067149375253,
        "RAAN(deg)": 109.99858527086077,
        "Satellite Name": "Constellation 1 501",
        "Satellite Number": 501,
        "Semi-Major Axis(m)": 7083131.272910544,
        "Time(s)": 25
    },
    {
        "Altitude(m)": 717543.0439766515,
        "Argument of Periapsis(deg)": 0.001558648162380546,
        "Eccentricity": 0.0,
        "Inclination(deg)": 45.0,
        "Latitude(deg)": -44.33361328574703,
        "Longitude(deg)": -66.43077429089638,
        "Mean Anomaly(deg)": -80.23997035350266,
        "RAAN(deg)": 109.99852868169519,
        "Satellite Name": "Constellation 1 501",
        "Satellite Number": 501,
        "Semi-Major Axis(m)": 7083131.272910544,
        "Time(s)": 26
    },
    {
        "Altitude(m)": 717538.8486850122,
        "Argument of Periapsis(deg)": 0.0016185961686259519,
        "Eccentricity": 0.0,
        "Inclination(deg)": 45.0,
        "Latitude(deg)": -44.32346250130156,
        "Longitude(deg)": -66.35164353462694,
        "Mean Anomaly(deg)": -80.17926921325272,
        "RAAN(deg)": 109.99847209252962,
        "Satellite Name": "Constellation 1 501",
        "Satellite Number": 501,
        "Semi-Major Axis(m)": 7083131.272910544,
        "Time(s)": 27
    },
    {
        "Altitude(m)": 717534.6282509661,
        "Argument of Periapsis(deg)": 0.0016785441748713573,
        "Eccentricity": 0.0,
        "Inclination(deg)": 45.0,
        "Latitude(deg)": -44.31325108145023,
        "Longitude(deg)": -66.27254150120388,
        "Mean Anomaly(deg)": -80.11856807300286,
        "RAAN(deg)": 109.99841550336406,
        "Satellite Name": "Constellation 1 501",
        "Satellite Number": 501,
        "Semi-Major Axis(m)": 7083131.272910544,
        "Time(s)": 28
    },
    {
        "Altitude(m)": 717530.3826900553,
        "Argument of Periapsis(deg)": 0.001738492181116763,
        "Eccentricity": 0.0,
        "Inclination(deg)": 45.0,
        "Latitude(deg)": -44.30297906827827,
        "Longitude(deg)": -66.19346834127676,
        "Mean Anomaly(deg)": -80.05786693275294,
        "RAAN(deg)": 109.99835891419848,
        "Satellite Name": "Constellation 1 501",
        "Satellite Number": 501,
        "Semi-Major Axis(m)": 7083131.272910544,
        "Time(s)": 29
    },
    {
        "Altitude(m)": 717526.1120179242,
        "Argument of Periapsis(deg)": 0.0017984401873621684,
        "Eccentricity": 0.0,
        "Inclination(deg)": 45.0,
        "Latitude(deg)": -44.29264650408362,
        "Longitude(deg)": -66.11442437312971,
        "Mean Anomaly(deg)": -79.99716579250303,
        "RAAN(deg)": 109.99830232503291,
        "Satellite Name": "Constellation 1 501",
        "Satellite Number": 501,
        "Semi-Major Axis(m)": 7083131.272910544,
        "Time(s)": 30
    },
    {
        "Altitude(m)": 717521.8162502949,
        "Argument of Periapsis(deg)": 0.0018583881936075745,
        "Eccentricity": 0.0,
        "Inclination(deg)": 45.0,
        "Latitude(deg)": -44.28225343137578,
        "Longitude(deg)": -66.03540941028956,
        "Mean Anomaly(deg)": -79.93646465225312,
        "RAAN(deg)": 109.99824573586736,
        "Satellite Name": "Constellation 1 501",
        "Satellite Number": 501,
        "Semi-Major Axis(m)": 7083131.272910544,
        "Time(s)": 31
    },
    {
        "Altitude(m)": 717517.4954029905,
        "Argument of Periapsis(deg)": 0.0019183361998529795,
        "Eccentricity": 0.0,
        "Inclination(deg)": 45.0,
        "Latitude(deg)": -44.27179989287561,
        "Longitude(deg)": -65.95642377010854,
        "Mean Anomaly(deg)": -79.8757635120032,
        "RAAN(deg)": 109.99818914670178,
        "Satellite Name": "Constellation 1 501",
        "Satellite Number": 501,
        "Semi-Major Axis(m)": 7083131.272910544,
        "Time(s)": 32
    },
    {
        "Altitude(m)": 717513.14949192,
        "Argument of Periapsis(deg)": 0.0019782842060983856,
        "Eccentricity": 0.0,
        "Inclination(deg)": 45.0,
        "Latitude(deg)": -44.261285931514195,
        "Longitude(deg)": -65.87746760137298,
        "Mean Anomaly(deg)": -79.81506237175334,
        "RAAN(deg)": 109.99813255753621,
        "Satellite Name": "Constellation 1 501",
        "Satellite Number": 501,
        "Semi-Major Axis(m)": 7083131.272910544,
        "Time(s)": 33
    },
    {
        "Altitude(m)": 717508.7785330928,
        "Argument of Periapsis(deg)": 0.0020382322123437906,
        "Eccentricity": 0.0,
        "Inclination(deg)": 45.0,
        "Latitude(deg)": -44.250711590431926,
        "Longitude(deg)": -65.7985410523988,
        "Mean Anomaly(deg)": -79.75436123150344,
        "RAAN(deg)": 109.99807596837063,
        "Satellite Name": "Constellation 1 501",
        "Satellite Number": 501,
        "Semi-Major Axis(m)": 7083131.272910544,
        "Time(s)": 34
    },
    {
        "Altitude(m)": 717504.3825426056,
        "Argument of Periapsis(deg)": 0.002098180218589197,
        "Eccentricity": 0.0,
        "Inclination(deg)": 45.0,
        "Latitude(deg)": -44.24007691297799,
        "Longitude(deg)": -65.71964427103028,
        "Mean Anomaly(deg)": -79.69366009125353,
        "RAAN(deg)": 109.99801937920508,
        "Satellite Name": "Constellation 1 501",
        "Satellite Number": 501,
        "Semi-Major Axis(m)": 7083131.272910544,
        "Time(s)": 35
    },
    {
        "Altitude(m)": 717499.9615366436,
        "Argument of Periapsis(deg)": 0.002158128224834602,
        "Eccentricity": 0.0,
        "Inclination(deg)": 45.0,
        "Latitude(deg)": -44.22938194270939,
        "Longitude(deg)": -65.64077740463772,
        "Mean Anomaly(deg)": -79.63295895100363,
        "RAAN(deg)": 109.99796279003951,
        "Satellite Name": "Constellation 1 501",
        "Satellite Number": 501,
        "Semi-Major Axis(m)": 7083131.272910544,
        "Time(s)": 36
    },
    {
        "Altitude(m)": 717495.5155314947,
        "Argument of Periapsis(deg)": 0.002218076231080008,
        "Eccentricity": 0.0,
        "Inclination(deg)": 45.0,
        "Latitude(deg)": -44.21862672339026,
        "Longitude(deg)": -65.56194076821367,
        "Mean Anomaly(deg)": -79.57225781075371,
        "RAAN(deg)": 109.99790620087393,
        "Satellite Name": "Constellation 1 501",
        "Satellite Number": 501,
        "Semi-Major Axis(m)": 7083131.272910544,
        "Time(s)": 37
    }
]